start=new Date('2022-01-06T00:00:00.000Z').valueOf();
sats=[{"CLASSIFICATION_TYPE":"U","EPHEMERIS_TYPE":"0","COUNTRY_CODE":"US","PERIOD":"95.593","NORAD_CAT_ID":"46709","MEAN_ANOMALY":"302.0449","TIME_SYSTEM":"UTC","ELEMENT_SET_NO":"999","FILE":"3265018","ECCENTRICITY":"0.00019980","EPOCH":"2022-01-05T21:42:25.031232","OBJECT_TYPE":"PAYLOAD","TLE_LINE2":"2 46709  53.0564 257.1530 0001998  58.0734 302.0449 15.06388642 67242","DECAY_DATE":null,"SEMIMAJOR_AXIS":"6925.383","GP_ID":"193286237","MEAN_MOTION_DDOT":"0.0000000000000","TLE_LINE1":"1 46709U 20073AR  22005.90445638  .00000044  00000-0  21903-4 0  9993","LAUNCH_DATE":"2020-10-18","OBJECT_ID":"2020-073AR","OBJECT_NAME":"STARLINK-1810","MEAN_MOTION_DOT":"0.00000044","REV_AT_EPOCH":"6724","MEAN_ELEMENT_THEORY":"SGP4","INCLINATION":"53.0564","RA_OF_ASC_NODE":"257.1530","PERIAPSIS":"545.865","RCS_SIZE":"LARGE","APOAPSIS":"548.632","SITE":"AFETR","MEAN_MOTION":"15.06388642","ARG_OF_PERICENTER":"58.0734","BSTAR":"0.00002190300000","REF_FRAME":"TEME","CENTER_NAME":"EARTH"},{"REF_FRAME":"TEME","CENTER_NAME":"EARTH","BSTAR":"-0.00000060364000","APOAPSIS":"548.720","SITE":"AFETR","MEAN_MOTION":"15.06386094","ARG_OF_PERICENTER":"60.7221","INCLINATION":"53.0527","RA_OF_ASC_NODE":"257.0262","PERIAPSIS":"545.792","RCS_SIZE":"LARGE","MEAN_ELEMENT_THEORY":"SGP4","MEAN_MOTION_DOT":"-0.00000291","REV_AT_EPOCH":"6725","OBJECT_ID":"2020-073AS","OBJECT_NAME":"STARLINK-1811","LAUNCH_DATE":"2020-10-18","TLE_LINE1":"1 46710U 20073AS  22005.93489007 -.00000291  00000-0 -60364-6 0  9998","TLE_LINE2":"2 46710  53.0527 257.0262 0002114  60.7221 299.3979 15.06386094 67252","DECAY_DATE":null,"SEMIMAJOR_AXIS":"6925.391","GP_ID":"193285020","MEAN_MOTION_DDOT":"0.0000000000000","FILE":"3265018","ECCENTRICITY":"0.00021140","OBJECT_TYPE":"PAYLOAD","EPOCH":"2022-01-05T22:26:14.502048","ELEMENT_SET_NO":"999","NORAD_CAT_ID":"46710","MEAN_ANOMALY":"299.3979","TIME_SYSTEM":"UTC","EPHEMERIS_TYPE":"0","COUNTRY_CODE":"US","PERIOD":"95.593","CLASSIFICATION_TYPE":"U"},{"LAUNCH_DATE":"2020-10-18","OBJECT_ID":"2020-073AT","OBJECT_NAME":"STARLINK-1813","MEAN_MOTION_DOT":"-0.00000506","REV_AT_EPOCH":"6746","MEAN_ELEMENT_THEORY":"SGP4","RCS_SIZE":"LARGE","INCLINATION":"53.0537","RA_OF_ASC_NODE":"242.1434","PERIAPSIS":"545.951","MEAN_MOTION":"15.06399199","ARG_OF_PERICENTER":"71.7810","SITE":"AFETR","APOAPSIS":"548.481","BSTAR":"-0.00001508200000","CENTER_NAME":"EARTH","REF_FRAME":"TEME","CLASSIFICATION_TYPE":"U","COUNTRY_CODE":"US","PERIOD":"95.592","EPHEMERIS_TYPE":"0","TIME_SYSTEM":"UTC","NORAD_CAT_ID":"46711","MEAN_ANOMALY":"288.3378","ELEMENT_SET_NO":"999","OBJECT_TYPE":"PAYLOAD","EPOCH":"2022-01-05T21:48:25.212960","FILE":"3265018","ECCENTRICITY":"0.00018270","GP_ID":"193285270","SEMIMAJOR_AXIS":"6925.351","MEAN_MOTION_DDOT":"0.0000000000000","TLE_LINE2":"2 46711  53.0537 242.1434 0001827  71.7810 288.3378 15.06399199 67460","DECAY_DATE":null,"TLE_LINE1":"1 46711U 20073AT  22005.90862515 -.00000506  00000-0 -15082-4 0  9999"},{"OBJECT_TYPE":"PAYLOAD","EPOCH":"2022-01-05T20:59:16.856160","FILE":"3265018","ECCENTRICITY":"0.00020810","ELEMENT_SET_NO":"999","TLE_LINE1":"1 46712U 20073AU  22005.87450065  .00000095  00000-0  25323-4 0  9999","GP_ID":"193285519","MEAN_MOTION_DDOT":"0.0000000000000","SEMIMAJOR_AXIS":"6925.341","DECAY_DATE":null,"TLE_LINE2":"2 46712  53.0529 242.3013 0002081  65.6826 294.4380 15.06402560 67456","PERIOD":"95.592","COUNTRY_CODE":"US","EPHEMERIS_TYPE":"0","CLASSIFICATION_TYPE":"U","TIME_SYSTEM":"UTC","MEAN_ANOMALY":"294.4380","NORAD_CAT_ID":"46712","ARG_OF_PERICENTER":"65.6826","MEAN_MOTION":"15.06402560","SITE":"AFETR","APOAPSIS":"548.647","RCS_SIZE":"LARGE","RA_OF_ASC_NODE":"242.3013","PERIAPSIS":"545.765","INCLINATION":"53.0529","CENTER_NAME":"EARTH","REF_FRAME":"TEME","BSTAR":"0.00002532300000","OBJECT_NAME":"STARLINK-1814","OBJECT_ID":"2020-073AU","LAUNCH_DATE":"2020-10-18","MEAN_ELEMENT_THEORY":"SGP4","REV_AT_EPOCH":"6745","MEAN_MOTION_DOT":"0.00000095"},{"RCS_SIZE":"LARGE","PERIAPSIS":"545.735","RA_OF_ASC_NODE":"242.2457","INCLINATION":"53.0527","ARG_OF_PERICENTER":"63.1245","MEAN_MOTION":"15.06411471","SITE":"AFETR","APOAPSIS":"548.622","BSTAR":"-0.00005417200000","CENTER_NAME":"EARTH","REF_FRAME":"TEME","LAUNCH_DATE":"2020-10-18","OBJECT_NAME":"STARLINK-1815","OBJECT_ID":"2020-073AV","REV_AT_EPOCH":"6745","MEAN_MOTION_DOT":"-0.00001089","MEAN_ELEMENT_THEORY":"SGP4","ELEMENT_SET_NO":"999","OBJECT_TYPE":"PAYLOAD","EPOCH":"2022-01-05T21:16:33.318336","FILE":"3265018","ECCENTRICITY":"0.00020840","MEAN_MOTION_DDOT":"0.0000000000000","GP_ID":"193285738","SEMIMAJOR_AXIS":"6925.313","DECAY_DATE":null,"TLE_LINE2":"2 46713  53.0527 242.2457 0002084  63.1245 296.9956 15.06411471 67454","TLE_LINE1":"1 46713U 20073AV  22005.88649674 -.00001089  00000-0 -54172-4 0  9997","CLASSIFICATION_TYPE":"U","PERIOD":"95.591","COUNTRY_CODE":"US","EPHEMERIS_TYPE":"0","TIME_SYSTEM":"UTC","MEAN_ANOMALY":"296.9956","NORAD_CAT_ID":"46713"},{"GP_ID":"193284521","SEMIMAJOR_AXIS":"6925.330","MEAN_MOTION_DDOT":"0.0000000000000","TLE_LINE2":"2 46714  53.0551 242.2920 0002159  59.1578 300.9623 15.06406218 67454","DECAY_DATE":null,"TLE_LINE1":"1 46714U 20073AW  22005.87544105 -.00000554  00000-0 -18245-4 0  9997","ELEMENT_SET_NO":"999","EPOCH":"2022-01-05T21:00:38.106720","OBJECT_TYPE":"PAYLOAD","FILE":"3265018","ECCENTRICITY":"0.00021590","TIME_SYSTEM":"UTC","NORAD_CAT_ID":"46714","MEAN_ANOMALY":"300.9623","CLASSIFICATION_TYPE":"U","COUNTRY_CODE":"US","PERIOD":"95.592","EPHEMERIS_TYPE":"0","BSTAR":"-0.00001824500000","CENTER_NAME":"EARTH","REF_FRAME":"TEME","RCS_SIZE":"LARGE","INCLINATION":"53.0551","RA_OF_ASC_NODE":"242.2920","PERIAPSIS":"545.699","MEAN_MOTION":"15.06406218","ARG_OF_PERICENTER":"59.1578","APOAPSIS":"548.690","SITE":"AFETR","MEAN_MOTION_DOT":"-0.00000554","REV_AT_EPOCH":"6745","MEAN_ELEMENT_THEORY":"SGP4","LAUNCH_DATE":"2020-10-18","OBJECT_ID":"2020-073AW","OBJECT_NAME":"STARLINK-1816"},{"RA_OF_ASC_NODE":"242.3091","PERIAPSIS":"545.735","INCLINATION":"53.0545","RCS_SIZE":"LARGE","SITE":"AFETR","APOAPSIS":"548.699","ARG_OF_PERICENTER":"57.0123","MEAN_MOTION":"15.06398913","BSTAR":"-0.00000355500000","REF_FRAME":"TEME","CENTER_NAME":"EARTH","LAUNCH_DATE":"2020-10-18","OBJECT_NAME":"STARLINK-1817","OBJECT_ID":"2020-073AX","REV_AT_EPOCH":"6745","MEAN_MOTION_DOT":"-0.00000335","MEAN_ELEMENT_THEORY":"SGP4","ELEMENT_SET_NO":"999","FILE":"3265018","ECCENTRICITY":"0.00021400","EPOCH":"2022-01-05T20:55:20.395776","OBJECT_TYPE":"PAYLOAD","DECAY_DATE":null,"TLE_LINE2":"2 46715  53.0545 242.3091 0002140  57.0123 303.1071 15.06398913 67455","GP_ID":"193284771","MEAN_MOTION_DDOT":"0.0000000000000","SEMIMAJOR_AXIS":"6925.352","TLE_LINE1":"1 46715U 20073AX  22005.87176384 -.00000335  00000-0 -35550-5 0  9994","CLASSIFICATION_TYPE":"U","EPHEMERIS_TYPE":"0","PERIOD":"95.592","COUNTRY_CODE":"US","MEAN_ANOMALY":"303.1071","NORAD_CAT_ID":"46715","TIME_SYSTEM":"UTC"},{"OBJECT_TYPE":"PAYLOAD","EPOCH":"2022-01-05T21:17:14.565696","FILE":"3265018","ECCENTRICITY":"0.00021280","ELEMENT_SET_NO":"999","TLE_LINE1":"1 46716U 20073AY  22005.88697414 -.00000662  00000-0 -25555-4 0  9994","MEAN_MOTION_DDOT":"0.0000000000000","GP_ID":"193286019","SEMIMAJOR_AXIS":"6925.393","DECAY_DATE":null,"TLE_LINE2":"2 46716  53.0551 257.2496 0002128  59.4213 300.6985 15.06385358 67241","PERIOD":"95.593","COUNTRY_CODE":"US","EPHEMERIS_TYPE":"0","CLASSIFICATION_TYPE":"U","TIME_SYSTEM":"UTC","MEAN_ANOMALY":"300.6985","NORAD_CAT_ID":"46716","ARG_OF_PERICENTER":"59.4213","MEAN_MOTION":"15.06385358","APOAPSIS":"548.732","SITE":"AFETR","RCS_SIZE":"LARGE","PERIAPSIS":"545.785","RA_OF_ASC_NODE":"257.2496","INCLINATION":"53.0551","CENTER_NAME":"EARTH","REF_FRAME":"TEME","BSTAR":"-0.00002555500000","OBJECT_NAME":"STARLINK-1818","OBJECT_ID":"2020-073AY","LAUNCH_DATE":"2020-10-18","MEAN_ELEMENT_THEORY":"SGP4","REV_AT_EPOCH":"6724","MEAN_MOTION_DOT":"-0.00000662"},{"REF_FRAME":"TEME","CENTER_NAME":"EARTH","BSTAR":"-0.00002931900000","SITE":"AFETR","APOAPSIS":"548.604","ARG_OF_PERICENTER":"63.9878","MEAN_MOTION":"15.06387502","PERIAPSIS":"545.900","RA_OF_ASC_NODE":"242.2153","INCLINATION":"53.0542","RCS_SIZE":"LARGE","MEAN_ELEMENT_THEORY":"SGP4","REV_AT_EPOCH":"6745","MEAN_MOTION_DOT":"-0.00000718","OBJECT_NAME":"STARLINK-1820","OBJECT_ID":"2020-073AZ","LAUNCH_DATE":"2020-10-18","TLE_LINE1":"1 46717U 20073AZ  22005.89019902 -.00000718  00000-0 -29319-4 0  9990","DECAY_DATE":null,"TLE_LINE2":"2 46717  53.0542 242.2153 0001952  63.9878 296.1312 15.06387502 67456","SEMIMAJOR_AXIS":"6925.387","GP_ID":"193286238","MEAN_MOTION_DDOT":"0.0000000000000","FILE":"3265018","ECCENTRICITY":"0.00019520","EPOCH":"2022-01-05T21:21:53.195328","OBJECT_TYPE":"PAYLOAD","ELEMENT_SET_NO":"999","MEAN_ANOMALY":"296.1312","NORAD_CAT_ID":"46717","TIME_SYSTEM":"UTC","EPHEMERIS_TYPE":"0","PERIOD":"95.593","COUNTRY_CODE":"US","CLASSIFICATION_TYPE":"U"},{"MEAN_MOTION_DOT":"-0.00000288","REV_AT_EPOCH":"6725","MEAN_ELEMENT_THEORY":"SGP4","LAUNCH_DATE":"2020-10-18","OBJECT_ID":"2020-073BA","OBJECT_NAME":"STARLINK-1821","BSTAR":"-0.00000039345000","REF_FRAME":"TEME","CENTER_NAME":"EARTH","INCLINATION":"53.0532","PERIAPSIS":"545.820","RA_OF_ASC_NODE":"257.0454","RCS_SIZE":"LARGE","SITE":"AFETR","APOAPSIS":"548.665","MEAN_MOTION":"15.06390662","ARG_OF_PERICENTER":"66.6962","NORAD_CAT_ID":"46718","MEAN_ANOMALY":"293.4242","TIME_SYSTEM":"UTC","CLASSIFICATION_TYPE":"U","EPHEMERIS_TYPE":"0","COUNTRY_CODE":"US","PERIOD":"95.593","TLE_LINE2":"2 46718  53.0532 257.0454 0002054  66.6962 293.4242 15.06390662 67253","DECAY_DATE":null,"GP_ID":"193285021","MEAN_MOTION_DDOT":"0.0000000000000","SEMIMAJOR_AXIS":"6925.377","TLE_LINE1":"1 46718U 20073BA  22005.93120167 -.00000288  00000-0 -39345-6 0  9996","ELEMENT_SET_NO":"999","FILE":"3265018","ECCENTRICITY":"0.00020540","OBJECT_TYPE":"PAYLOAD","EPOCH":"2022-01-05T22:20:55.824288"}];
